1 45419U 20019BM  23029.52596444  .00000820  00000-0  73970-4 0  9990
2 45419  53.0532 222.5629 0001198  88.0999 272.0127 15.06393143158373
1 45419U 20019BM  23029.79135391  .00000989  00000-0  85320-4 0  9997
2 45419  53.0542 221.3725 0001383  74.1939 285.9202 15.06391186158411
1 45419U 20019BM  23030.52116343  .00000503  00000-0  52651-4 0  9999
2 45419  53.0538 218.0960 0001230  82.4440 277.6689 15.06400939158526
1 45419U 20019BM  23030.78654787  .00000848  00000-0  75819-4 0  9999
2 45419  53.0539 216.9047 0001245  82.8707 277.2423 15.06403741158566
1 45419U 20019BM  23030.78654787  .00000848  00000-0  75819-4 0  9999
2 45419  53.0539 216.9047 0001245  82.8707 277.2423 15.06403741158566
1 45419U 20019BM  23031.51636728  .00001044  00000-0  88978-4 0  9995
2 45419  53.0537 213.6287 0001269  80.2336 279.8796 15.06396490158675
1 45419U 20019BM  23031.51636728  .00001044  00000-0  88978-4 0  9995
2 45419  53.0537 213.6287 0001269  80.2336 279.8796 15.06396490158675
1 45419U 20019BM  23031.78175431  .00000939  00000-0  81950-4 0  9998
2 45419  53.0533 212.4360 0001259  84.2026 275.9106 15.06397122158719
1 45419U 20019BM  23032.17983578  .00000704  00000-0  66120-4 0  9993
2 45419  53.0534 210.6490 0001267  83.9577 276.1556 15.06397326158774
1 45419U 20019BM  23032.77695596  .00000429  00000-0  47658-4 0  9998
2 45419  53.0511 207.9673 0001248  83.2508 276.8623 15.06399181158860
1 45419U 20019BM  23033.44042657  .00000668  00000-0  63717-4 0  9996
2 45419  53.0509 204.9895 0001266  85.0591 275.0542 15.06395565158966
1 45419U 20019BM  23033.57312191  .00000347  00000-0  42205-4 0  9996
2 45419  53.0532 204.3938 0001294  83.8644 276.2492 15.06394769158984
1 45419U 20019BM  23034.50197864  .00000228  00000-0  34216-4 0  9999
2 45419  53.0532 200.2239 0001289  88.1841 271.9296 15.06395249159129
1 45419U 20019BM  23034.56832456  .00000242  00000-0  35141-4 0  9992
2 45419  53.0533 199.9260 0001350  87.0372 273.0771 15.06396995159135
1 45419U 20019BM  23035.16544584  .00000144  00000-0  28578-4 0  9998
2 45419  53.0534 197.2452 0001418  86.3095 273.8056 15.06398760159225
1 45419U 20019BM  23035.56352888  .00000700  00000-0  65919-4 0  9994
2 45419  53.0536 195.4585 0001301  87.1869 272.9269 15.06394950159282
1 45419U 20019BM  23035.76256514  .00000636  00000-0  61552-4 0  9992
2 45419  53.0541 194.5651 0001101  87.3885 272.7230 15.06401106159312
1 45419U 20019BM  23036.42604038  .00000308  00000-0  39597-4 0  9994
2 45419  53.0550 191.5877 0001103  91.3092 268.8023 15.06392451159415
1 45419U 20019BM  23036.42604038  .00000308  00000-0  39597-4 0  9994
2 45419  53.0550 191.5877 0001103  91.3092 268.8023 15.06392451159415
1 45419U 20019BM  23036.82411795  .00000598  00000-0  59016-4 0  9993
2 45419  53.0538 189.7996 0001139  97.6380 262.4738 15.06397359159471
1 45419U 20019BM  23037.15585199  .00000104  00000-0  25904-4 0  9992
2 45419  53.0539 188.3107 0001287  88.1161 271.9975 15.06400765159527
1 45419U 20019BM  23037.42124435  .00004453  00000-0  31780-3 0  9993
2 45419  53.0538 187.1193 0001046  96.1017 264.0091 15.06380278159562
1 45419U 20019BM  23037.55393951  .00006404  00000-0  44871-3 0  9991
2 45419  53.0538 186.5238 0000949  98.9488 261.1608 15.06375649159588
1 45419U 20019BM  23037.68662328  .00001412  00000-0  11367-3 0  9990
2 45419  53.0539 185.9285 0001259  85.0100 275.1033 15.06403014159605
1 45419U 20019BM  23037.68662328  .00001412  00000-0  11367-3 0  9990
2 45419  53.0539 185.9285 0001259  85.0100 275.1033 15.06403014159605
1 45419U 20019BM  23038.54913575  .00001033  00000-0  88257-4 0  9991
2 45419  53.0552 182.0579 0001338  91.2058 268.9085 15.06398333159731
1 45419U 20019BM  23038.61548259  .00000983  00000-0  84874-4 0  9996
2 45419  53.0548 181.7591 0001330  91.0585 269.0557 15.06398680159743
1 45419U 20019BM  23038.68182780  .00000712  00000-0  66659-4 0  9997
2 45419  53.0551 181.4611 0001225  91.2585 268.8545 15.06401408159750
1 45419U 20019BM  23039.54434151 -.00000486  00000-0 -13727-4 0  9993
2 45419  53.0563 177.5896 0001658 103.4571 256.6603 15.06398070159889
1 45419U 20019BM  23039.67703254 -.00000447  00000-0 -11087-4 0  9994
2 45419  53.0563 176.9940 0001499  98.8949 261.2209 15.06401778159908
1 45419U 20019BM  23039.67703254 -.00000447  00000-0 -11087-4 0  9994
2 45419  53.0563 176.9940 0001499  98.8949 261.2209 15.06401778159908
1 45419U 20019BM  23040.40685319 -.00000081  00000-0  13433-4 0  9998
2 45419  53.0559 173.7171 0001477 102.4720 257.6435 15.06394888160016
1 45419U 20019BM  23040.67223547  .00000736  00000-0  68302-4 0  9999
2 45419  53.0563 172.5260 0001503 107.3059 252.8095 15.06401296160051
1 45419U 20019BM  23041.53475238  .00001198  00000-0  99363-4 0  9995
2 45419  53.0566 168.6548 0001621 105.0532 255.0637 15.06391726160188
1 45419U 20019BM  23041.66744246  .00001309  00000-0  10678-3 0  9992
2 45419  53.0560 168.0576 0001689  72.5494 287.5680 15.06400519160208
1 45419U 20019BM  23041.66744246  .00001309  00000-0  10678-3 0  9992
2 45419  53.0560 168.0576 0001689  72.5494 287.5680 15.06400519160208
1 45419U 20019BM  23042.72899427  .00000486  00000-0  51539-4 0  9999
2 45419  53.0560 163.2937 0001529  80.7783 279.3379 15.06399495160362
1 45419U 20019BM  23042.72899427  .00000486  00000-0  51539-4 0  9999
2 45419  53.0560 163.2937 0001529  80.7783 279.3379 15.06399495160362
1 45419U 20019BM  23043.59149497  .00000453  00000-0  49312-4 0  9990
2 45419  53.0544 159.4207 0001172  99.8052 260.3070 15.06410692160490
1 45419U 20019BM  23043.59149497  .00000453  00000-0  49312-4 0  9990
2 45419  53.0544 159.4207 0001172  99.8052 260.3070 15.06410692160490
1 45419U 20019BM  23044.58670285 -.00000619  00000-0 -22672-4 0  9990
2 45419  53.0547 154.9555 0001269  88.4171 271.6963 15.06408953160642
1 45419U 20019BM  23044.71938928  .00000436  00000-0  48150-4 0  9990
2 45419  53.0553 154.3610 0001421  84.6208 275.4943 15.06417215160667
1 45419U 20019BM  23044.98478972 -.00001436  00000-0 -77507-4 0  9998
2 45419  53.0555 153.1672 0001684  78.9676 281.1502 15.06400137160705
1 45419U 20019BM  23045.58190821  .00000908  00000-0  79870-4 0  9995
2 45419  53.0537 150.4849 0001536  90.5027 269.6138 15.06400542160792
1 45419U 20019BM  23045.78094433  .00001043  00000-0  88879-4 0  9999
2 45419  53.0547 149.5908 0001602  85.2180 274.8992 15.06408864160828
1 45419U 20019BM  23045.78094433  .00001043  00000-0  88879-4 0  9999
2 45419  53.0547 149.5908 0001602  85.2180 274.8992 15.06408864160828
1 45419U 20019BM  23045.98000477 -.00002225  00000-0 -13055-3 0  9994
2 45419  53.0532 148.6952 0002315  85.4894 274.6359 15.06385449160858
1 45419U 20019BM  23046.51076526  .00001232  00000-0  10161-3 0  9992
2 45419  53.0553 146.3167 0001390 104.5811 255.5332 15.06399859160936
1 45419U 20019BM  23046.70979002  .00003251  00000-0  23693-3 0  9991
2 45419  53.0544 145.4223 0001148 109.3878 250.7236 15.06417369160966
1 45419U 20019BM  23046.70979002  .00003251  00000-0  23693-3 0  9991
2 45419  53.0544 145.4223 0001148 109.3878 250.7236 15.06417369160966
1 45419U 20019BM  23047.50595014 -.00000106  00000-0  11752-4 0  9998
2 45419  53.0553 141.8497 0000987  89.1364 270.9738 15.06424004161083
1 45419U 20019BM  23047.63864041  .00002722  00000-0  20142-3 0  9998
2 45419  53.0552 141.2527 0001067  95.6972 264.4139 15.06426640161101
1 45419U 20019BM  23047.63864041  .00002722  00000-0  20142-3 0  9998
2 45419  53.0552 141.2527 0001067  95.6972 264.4139 15.06426640161101
1 45419U 20019BM  23048.23578570 -.00000344  00000-0 -41981-5 0  9990
2 45419  53.0539 138.5736 0000889  92.0857 268.0233 15.06382752161190
1 45419U 20019BM  23048.50117207 -.00002318  00000-0 -13682-3 0  9994
2 45419  53.0537 137.3814 0001095  89.1122 270.9992 15.06386148161236
1 45419U 20019BM  23048.56751372 -.00003597  00000-0 -22271-3 0  9991
2 45419  53.0541 137.0833 0001187  93.5954 266.5171 15.06395403161248
1 45419U 20019BM  23048.76655360 -.00000735  00000-0 -30445-4 0  9997
2 45419  53.0540 136.1893 0001127  95.0488 265.0629 15.06398739161276
1 45419U 20019BM  23049.56272832 -.00001906  00000-0 -10912-3 0  9992
2 45419  53.0537 132.6136 0001239  91.0221 269.0910 15.06390489161392
1 45419U 20019BM  23049.69542302  .00003447  00000-0  25021-3 0  9995
2 45419  53.0544 132.0208 0001246  76.9978 283.1150 15.06394361161412
1 45419U 20019BM  23050.55791985  .00024968  00000-0  16870-2 0  9997
2 45419  53.0540 128.1484 0001301  70.5223 289.5906 15.06447373161540
1 45419U 20019BM  23050.62426422  .00026014  00000-0  17564-2 0  9991
2 45419  53.0540 127.8511 0001349  68.0274 292.0858 15.06452929161556
1 45419U 20019BM  23051.35409741  .00010964  00000-0  75439-3 0  9990
2 45419  53.0539 124.5747 0001187  94.7956 265.3169 15.06370674161668
1 45419U 20019BM  23051.55314261  .00024368  00000-0  16504-2 0  9994
2 45419  53.0539 123.6816 0001113  88.7614 271.3502 15.06372024161690
1 45419U 20019BM  23052.48200010  .00027199  00000-0  18369-2 0  9999
2 45419  53.0534 119.5114 0001150  88.2525 271.8596 15.06419209161838
1 45419U 20019BM  23052.48200010  .00027199  00000-0  18369-2 0  9999
2 45419  53.0534 119.5114 0001150  88.2525 271.8596 15.06419209161838
1 45419U 20019BM  23052.88008159  .00009939  00000-0  68502-3 0  9990
2 45419  53.0532 117.7239 0001259  99.6538 260.4593 15.06407318161899
1 45419U 20019BM  23052.88008159  .00009939  00000-0  68502-3 0  9990
2 45419  53.0532 117.7239 0001259  99.6538 260.4593 15.06407318161899
1 45419U 20019BM  23053.47721143  .00015515  00000-0  10586-2 0  9996
2 45419  53.0527 115.0436 0001166 101.5338 258.5782 15.06384963161989
1 45419U 20019BM  23053.54355904  .00017093  00000-0  11641-2 0  9998
2 45419  53.0526 114.7458 0001164 100.6930 259.4190 15.06384806161994
1 45419U 20019BM  23053.67625514  .00016184  00000-0  11033-2 0  9994
2 45419  53.0526 114.1499 0001431  94.8034 265.3118 15.06385781162012
1 45419U 20019BM  23054.53875668  .00016917  00000-0  11512-2 0  9993
2 45419  53.0529 110.2786 0001393  98.3330 261.7817 15.06421489162142
